STARLINK-37107          
1 68294U 26057A   26094.91668981 -.01412596  00000+0 -75365-2 0  9995
2 68294  97.2826 218.5738 0001534  73.8781  55.4692 15.83313916  3370
STARLINK-37147          
1 68295U 26057B   26094.91668981 -.01412764  00000+0 -75225-2 0  9998
2 68295  97.2818 218.5746 0001459  80.4278  53.0821 15.83356770  3364
STARLINK-37142          
1 68296U 26057C   26094.91668981 -.01492782  00000+0 -78093-2 0  9993
2 68296  97.2813 218.5796 0001659  78.1399  68.2180 15.83408874  3252
STARLINK-37115          
1 68297U 26057D   26094.91668981 -.01470592  00000+0 -76932-2 0  9999
2 68297  97.2810 218.5768 0001557  83.9421  58.1995 15.83369320  3250
STARLINK-36355          
1 68298U 26057E   26094.91668981 -.01408911  00000+0 -74911-2 0  9991
2 68298  97.2816 218.5760 0001326  83.3865  54.3428 15.83380429  3521
STARLINK-37118          
1 68299U 26057F   26094.91668981 -.01567997  00000+0 -82544-2 0  9993
2 68299  97.2804 218.5825 0001659  76.3981  78.6450 15.83416184  3365
STARLINK-36875          
1 68300U 26057G   26094.91668981 -.01554663  00000+0 -81860-2 0  9992
2 68300  97.2809 218.5810 0001703  76.9045  73.9213 15.83385941  3422
STARLINK-37099          
1 68301U 26057H   26094.91668981 -.01592681  00000+0 -84349-2 0  9990
2 68301  97.2800 218.5847 0001734  80.1221  79.4680 15.83334871  3257
STARLINK-37007          
1 68302U 26057J   26094.91668981 -.01611187  00000+0 -86190-2 0  9990
2 68302  97.2793 218.5877 0001628  88.0897  80.5372 15.83159583  3470
STARLINK-36300          
1 68303U 26057K   26094.91668981 -.01600638  00000+0 -85327-2 0  9991
2 68303  97.2795 218.5859 0001653  87.0418  77.1579 15.83212989  3526
STARLINK-36849          
1 68304U 26057L   26094.91668981 -.01617375  00000+0 -86470-2 0  9998
2 68304  97.2791 218.5898 0001709  80.0299  92.8229 15.83182755  3420
STARLINK-36277          
1 68305U 26057M   26094.91668981 -.01634257  00000+0 -87695-2 0  9997
2 68305  97.2781 218.5925 0001653  88.5963  92.9471 15.83137845  3587
